{"type": "FeatureCollection", "features": [ {"type": "Feature", "properties": {"norad_id": 30173, "name": "FENGYUN 1C DEB", "group": "fengyun-1c-debris", "lat": -16.69023275344687, "lon": -115.47338049834852, "alt_km": 833.3366507788305, "timestamp": "2025-12-22T11:33:20.713824+00:00", "meta": {"OBJECT_NAME": "FENGYUN 1C DEB", "OBJECT_ID": "1999-025UE", "EPOCH": "2025-12-22T03:57:00.811008", "MEAN_MOTION": 14.11433878, "ECCENTRICITY": 0.0081222, "INCLINATION": 98.9756, "RA_OF_ASC_NODE": 66.9259, "ARG_OF_PERICENTER": 261.9221, "MEAN_ANOMALY": 126.3889, "EPHEMERIS_TYPE": 0, "CLASSIFICATION_TYPE": "U", "NORAD_CAT_ID": 30173, "ELEMENT_SET_NO": 999, "REV_AT_EPOCH": 96682, "BSTAR": 0.0013944, "MEAN_MOTION_DOT": 2.56e-05, "MEAN_MOTION_DDOT": 0}, "tle": {"line1": "1 30173U 99025UE  25356.16459272  .00002560  00000+0  13944-2 0  9991", "line2": "2 30173  98.9756  66.9259 0081222 261.9221 126.3889 14.11433878966823"}}, "geometry": {"type": "Point", "coordinates": [-115.47338049834852, -16.69023275344687]}}, {"type": "Feature", "properties": {"norad_id": 30174, "name": "FENGYUN 1C DEB", "group": "fengyun-1c-debris", "lat": 41.892670621528964, "lon": -25.80100501149783, "alt_km": 628.1795875465959, "timestamp": "2025-12-22T11:33:20.713835+00:00", "meta": {"OBJECT_NAME": "FENGYUN 1C DEB", "OBJECT_ID": "1999-025UF", "EPOCH": "2025-12-21T09:14:26.291328", "MEAN_MOTION": 14.81525189, "ECCENTRICITY": 0.00185816, "INCLINATION": 98.7757, "RA_OF_ASC_NODE": 145.0338, "ARG_OF_PERICENTER": 16.9877, "MEAN_ANOMALY": 35.6376, "EPHEMERIS_TYPE": 0, "CLASSIFICATION_TYPE": "U", "NORAD_CAT_ID": 30174, "ELEMENT_SET_NO": 999, "REV_AT_EPOCH": 98496, "BSTAR": 0.0033351623, "MEAN_MOTION_DOT": 0.00026271, "MEAN_MOTION_DDOT": 0}, "tle": {"line1": "1 30174U 99025UF  25355.38502652  .00026271  00000+0  33352-2 0  9996", "line2": "2 30174  98.7757 145.0338 0018581  16.9877  35.6376 14.81525189984965"}}, "geometry": {"type": "Point", "coordinates": [-25.80100501149783, 41.892670621528964]}}, {"type": "Feature", "properties": {"norad_id": 30175, "name": "FENGYUN 1C DEB", "group": "fengyun-1c-debris", "lat": 37.6990591448565, "lon": 45.19342426936301, "alt_km": 1038.4489076806458, "timestamp": "2025-12-22T11:33:20.713845+00:00", "meta": {"OBJECT_NAME": "FENGYUN 1C DEB", "OBJECT_ID": "1999-025UG", "EPOCH": "2025-12-22T02:57:38.549376", "MEAN_MOTION": 13.83875919, "ECCENTRICITY": 0.014664, "INCLINATION": 99.3798, "RA_OF_ASC_NODE": 52.1754, "ARG_OF_PERICENTER": 187.7622, "MEAN_ANOMALY": 228.2928, "EPHEMERIS_TYPE": 0, "CLASSIFICATION_TYPE": "U", "NORAD_CAT_ID": 30175, "ELEMENT_SET_NO": 999, "REV_AT_EPOCH": 95470, "BSTAR": 0.00037141, "MEAN_MOTION_DOT": 4.03e-06, "MEAN_MOTION_DDOT": 0}, "tle": {"line1": "1 30175U 99025UG  25356.12336284  .00000403  00000+0  37141-3 0  9996", "line2": "2 30175  99.3798  52.1754 0146640 187.7622 228.2928 13.83875919954703"}}, "geometry": {"type": "Point", "coordinates": [45.19342426936301, 37.6990591448565]}}, {"type": "Feature", "properties": {"norad_id": 30177, "name": "FENGYUN 1C DEB", "group": "fengyun-1c-debris", "lat": -8.43168003273135, "lon": 117.76149429083179, "alt_km": 932.566151792641, "timestamp": "2025-12-22T11:33:20.713856+00:00", "meta": {"OBJECT_NAME": "FENGYUN 1C DEB", "OBJECT_ID": "1999-025UJ", "EPOCH": "2025-12-21T14:22:01.556832", "MEAN_MOTION": 13.62836366, "ECCENTRICITY": 0.0452045, "INCLINATION": 98.6275, "RA_OF_ASC_NODE": 298.2658, "ARG_OF_PERICENTER": 115.0327, "MEAN_ANOMALY": 59.2256, "EPHEMERIS_TYPE": 0, "CLASSIFICATION_TYPE": "U", "NORAD_CAT_ID": 30177, "ELEMENT_SET_NO": 999, "REV_AT_EPOCH": 93583, "BSTAR": 0.00080321, "MEAN_MOTION_DOT": 1.218e-05, "MEAN_MOTION_DDOT": 0}, "tle": {"line1": "1 30177U 99025UJ  25355.59862913  .00001218  00000+0  80321-3 0  9994", "line2": "2 30177  98.6275 298.2658 0452045 115.0327  59.2256 13.62836366935837"}}, "geometry": {"type": "Point", "coordinates": [117.76149429083179, -8.43168003273135]}}, {"type": "Feature", "properties": {"norad_id": 30178, "name": "FENGYUN 1C DEB", "group": "fengyun-1c-debris", "lat": -66.01920805926679, "lon": -98.41585910834402, "alt_km": 1254.6647730450668, "timestamp": "2025-12-22T11:33:20.713866+00:00", "meta": {"OBJECT_NAME": "FENGYUN 1C DEB", "OBJECT_ID": "1999-025UK", "EPOCH": "2025-12-21T14:58:31.025280", "MEAN_MOTION": 13.58714338, "ECCENTRICITY": 0.0280958, "INCLINATION": 102.2606, "RA_OF_ASC_NODE": 231.2508, "ARG_OF_PERICENTER": 106.725, "MEAN_ANOMALY": 311.9328, "EPHEMERIS_TYPE": 0, "CLASSIFICATION_TYPE": "U", "NORAD_CAT_ID": 30178, "ELEMENT_SET_NO": 999, "REV_AT_EPOCH": 93292, "BSTAR": 0.0016856, "MEAN_MOTION_DOT": 1.533e-05, "MEAN_MOTION_DDOT": 0}, "tle": {"line1": "1 30178U 99025UK  25355.62397020  .00001533  00000+0  16856-2 0  9992", "line2": "2 30178 102.2606 231.2508 0280958 106.7250 311.9328 13.58714338932927"}}, "geometry": {"type": "Point", "coordinates": [-98.41585910834402, -66.01920805926679]}}, {"type": "Feature", "properties": {"norad_id": 30181, "name": "FENGYUN 1C DEB", "group": "fengyun-1c-debris", "lat": -30.446820202589983, "lon": -105.41885305835717, "alt_km": 814.10665168776, "timestamp": "2025-12-22T11:33:20.713876+00:00", "meta": {"OBJECT_NAME": "FENGYUN 1C DEB", "OBJECT_ID": "1999-025UN", "EPOCH": "2025-12-22T04:11:05.103168", "MEAN_MOTION": 14.29309672, "ECCENTRICITY": 0.0040095, "INCLINATION": 98.8427, "RA_OF_ASC_NODE": 79.5197, "ARG_OF_PERICENTER": 331.3035, "MEAN_ANOMALY": 100.4197, "EPHEMERIS_TYPE": 0, "CLASSIFICATION_TYPE": "U", "NORAD_CAT_ID": 30181, "ELEMENT_SET_NO": 999, "REV_AT_EPOCH": 97646, "BSTAR": 0.0013968, "MEAN_MOTION_DOT": 3.541e-05, "MEAN_MOTION_DDOT": 0}, "tle": {"line1": "1 30181U 99025UN  25356.17436462  .00003541  00000+0  13968-2 0  9993", "line2": "2 30181  98.8427  79.5197 0040095 331.3035 100.4197 14.29309672976464"}}, "geometry": {"type": "Point", "coordinates": [-105.41885305835717, -30.446820202589983]}}, {"type": "Feature", "properties": {"norad_id": 30182, "name": "FENGYUN 1C DEB", "group": "fengyun-1c-debris", "lat": 4.934162171088164, "lon": 46.522810070877036, "alt_km": 854.6558374614206, "timestamp": "2025-12-22T11:33:20.713886+00:00", "meta": {"OBJECT_NAME": "FENGYUN 1C DEB", "OBJECT_ID": "1999-025UP", "EPOCH": "2025-12-22T03:03:31.903776", "MEAN_MOTION": 13.96459888, "ECCENTRICITY": 0.007454, "INCLINATION": 99.0641, "RA_OF_ASC_NODE": 46.9638, "ARG_OF_PERICENTER": 356.9499, "MEAN_ANOMALY": 29.1625, "EPHEMERIS_TYPE": 0, "CLASSIFICATION_TYPE": "U", "NORAD_CAT_ID": 30182, "ELEMENT_SET_NO": 999, "REV_AT_EPOCH": 96439, "BSTAR": 7.3888e-05, "MEAN_MOTION_DOT": 6e-07, "MEAN_MOTION_DDOT": 0}, "tle": {"line1": "1 30182U 99025UP  25356.12745259  .00000060  00000+0  73888-4 0  9998", "line2": "2 30182  99.0641  46.9638 0074540 356.9499  29.1625 13.96459888964393"}}, "geometry": {"type": "Point", "coordinates": [46.522810070877036, 4.934162171088164]}}, {"type": "Feature", "properties": {"norad_id": 30183, "name": "FENGYUN 1C DEB", "group": "fengyun-1c-debris", "lat": 15.04489361849939, "lon": 36.15265225326992, "alt_km": 867.4741667631279, "timestamp": "2025-12-22T11:33:20.713896+00:00", "meta": {"OBJECT_NAME": "FENGYUN 1C DEB", "OBJECT_ID": "1999-025UQ", "EPOCH": "2025-12-21T22:28:09.153120", "MEAN_MOTION": 14.12679632, "ECCENTRICITY": 0.0026324, "INCLINATION": 98.7876, "RA_OF_ASC_NODE": 38.0007, "ARG_OF_PERICENTER": 226.6642, "MEAN_ANOMALY": 257.0068, "EPHEMERIS_TYPE": 0, "CLASSIFICATION_TYPE": "U", "NORAD_CAT_ID": 30183, "ELEMENT_SET_NO": 999, "REV_AT_EPOCH": 97273, "BSTAR": 0.00049445, "MEAN_MOTION_DOT": 8.76e-06, "MEAN_MOTION_DDOT": 0}, "tle": {"line1": "1 30183U 99025UQ  25355.93621705  .00000876  00000+0  49445-3 0  9992", "line2": "2 30183  98.7876  38.0007 0026324 226.6642 257.0068 14.12679632972732"}}, "geometry": {"type": "Point", "coordinates": [36.15265225326992, 15.04489361849939]}}, {"type": "Feature", "properties": {"norad_id": 30191, "name": "FENGYUN 1C DEB", "group": "fengyun-1c-debris", "lat": 68.094624069965, "lon": 45.93805502668549, "alt_km": 693.4195664646686, "timestamp": "2025-12-22T11:33:20.713906+00:00", "meta": {"OBJECT_NAME": "FENGYUN 1C DEB", "OBJECT_ID": "1999-025UY", "EPOCH": "2025-12-21T17:56:23.777088", "MEAN_MOTION": 14.78161873, "ECCENTRICITY": 0.0097126, "INCLINATION": 98.7754, "RA_OF_ASC_NODE": 67.7303, "ARG_OF_PERICENTER": 234.8738, "MEAN_ANOMALY": 251.7985, "EPHEMERIS_TYPE": 0, "CLASSIFICATION_TYPE": "U", "NORAD_CAT_ID": 30191, "ELEMENT_SET_NO": 999, "REV_AT_EPOCH": 408, "BSTAR": 0.00094574, "MEAN_MOTION_DOT": 7.35e-05, "MEAN_MOTION_DDOT": 0}, "tle": {"line1": "1 30191U 99025UY  25355.74749742  .00007350  00000+0  94574-3 0  9999", "line2": "2 30191  98.7754  67.7303 0097126 234.8738 251.7985 14.78161873  4087"}}, "geometry": {"type": "Point", "coordinates": [45.93805502668549, 68.094624069965]}}, {"type": "Feature", "properties": {"norad_id": 30193, "name": "FENGYUN 1C DEB", "group": "fengyun-1c-debris", "lat": -32.239315226162056, "lon": 79.48089461528497, "alt_km": 758.1581090775153, "timestamp": "2025-12-22T11:33:20.713916+00:00", "meta": {"OBJECT_NAME": "FENGYUN 1C DEB", "OBJECT_ID": "1999-025VA", "EPOCH": "2025-12-21T16:38:33.127872", "MEAN_MOTION": 14.49162183, "ECCENTRICITY": 0.0107504, "INCLINATION": 98.7569, "RA_OF_ASC_NODE": 264.242, "ARG_OF_PERICENTER": 106.27, "MEAN_ANOMALY": 316.2459, "EPHEMERIS_TYPE": 0, "CLASSIFICATION_TYPE": "U", "NORAD_CAT_ID": 30193, "ELEMENT_SET_NO": 999, "REV_AT_EPOCH": 99296, "BSTAR": 0.00050018, "MEAN_MOTION_DOT": 1.997e-05, "MEAN_MOTION_DDOT": 0}, "tle": {"line1": "1 30193U 99025VA  25355.69343898  .00001997  00000+0  50018-3 0  9993", "line2": "2 30193  98.7569 264.2420 0107504 106.2700 316.2459 14.49162183992969"}}, "geometry": {"type": "Point", "coordinates": [79.48089461528497, -32.239315226162056]}}]}